[Satellite]
VERSION=1.1
NAME=RADUGA 11 [-]
NICKNAME=RADUGA 11 [-]
TLE1=1 13669U 82113A   17185.79690098 -.00000195  00000-0  00000-0 0  9996
TLE2=2 13669  14.8380 340.1263 0041479 208.8898 189.4619  0.97710057 89582
